[{"OBJECT_NAME":"KX-09","OBJECT_ID":"2019-058B","EPOCH":"2026-03-09T23:04:56.318016","MEAN_MOTION":14.96388453,"ECCENTRICITY":0.00095225,"INCLINATION":97.7825,"RA_OF_ASC_NODE":82.8152,"ARG_OF_PERICENTER":321.3855,"MEAN_ANOMALY":38.6684,"EPHEMERIS_TYPE":0,"CLASSIFICATION_TYPE":"U","NORAD_CAT_ID":44520,"ELEMENT_SET_NO":999,"REV_AT_EPOCH":35519,"BSTAR":0.00022385026,"MEAN_MOTION_DOT":2.479e-5,"MEAN_MOTION_DDOT":0},{"OBJECT_NAME":"STARLINK-32538","OBJECT_ID":"2024-225H","EPOCH":"2026-03-09T16:51:09.578016","MEAN_MOTION":14.98333906,"ECCENTRICITY":0.00035916,"INCLINATION":70.0024,"RA_OF_ASC_NODE":164.5555,"ARG_OF_PERICENTER":267.032,"MEAN_ANOMALY":93.0428,"EPHEMERIS_TYPE":0,"CLASSIFICATION_TYPE":"U","NORAD_CAT_ID":62170,"ELEMENT_SET_NO":999,"REV_AT_EPOCH":6987,"BSTAR":0.00017707849,"MEAN_MOTION_DOT":2.021e-5,"MEAN_MOTION_DDOT":0}]
